$$SOE
2460147.500000000, A.D. 2023-Jul-22 00:00:00.0000, -1.479420093008920E+07, -5.176582896996137E+08, -3.981697707641131E+07,
2460154.500000000, A.D. 2023-Jul-29 00:00:00.0000, -5.727937583382351E+06, -5.169207077079717E+08, -3.847230567301455E+07,
2460161.500000000, A.D. 2023-Aug-05 00:00:00.0000, 3.340264800427074E+06, -5.160029830748778E+08, -3.711422466876215E+07,
2460168.500000000, A.D. 2023-Aug-12 00:00:00.0000, 1.240723653142484E+07, -5.149043556498202E+08, -3.574312946352264E+07,
2460175.500000000, A.D. 2023-Aug-19 00:00:00.0000, 2.146976993673475E+07, -5.136241047292540E+08, -3.435942377941301E+07,
2460182.500000000, A.D. 2023-Aug-26 00:00:00.0000, 3.052461898028276E+07, -5.121615502611711E+08, -3.296351980344737E+07,
2460189.500000000, A.D. 2023-Sep-02 00:00:00.0000, 3.956849888099268E+07, -5.105160541760079E+08, -3.155583833601484E+07,
2460196.500000000, A.D. 2023-Sep-09 00:00:00.0000, 4.859808576815049E+07, -5.086870218860617E+08, -3.013680895159078E+07,
2460203.500000000, A.D. 2023-Sep-16 00:00:00.0000, 5.761001654475756E+07, -5.066739040125210E+08, -2.870687019150430E+07,
2460210.500000000, A.D. 2023-Sep-23 00:00:00.0000, 6.660088937774539E+07, -5.044761980545815E+08, -2.726646980310655E+07,
2460217.500000000, A.D. 2023-Sep-30 00:00:00.0000, 7.556726447787763E+07, -5.020934488110523E+08, -2.581606489639208E+07,
2460224.500000000, A.D. 2023-Oct-07 00:00:00.0000, 8.450566281801432E+07, -4.995252480976844E+08, -2.435612184598631E+07,
2460231.500000000, A.D. 2023-Oct-14 00:00:00.0000, 9.341256383269408E+07, -4.967712370731573E+08, -2.288711630408612E+07,
2460238.500000000, A.D. 2023-Oct-21 00:00:00.0000, 1.022844053313912E+08, -4.938311095716088E+08, -2.140953348899916E+07,
2460245.500000000, A.D. 2023-Oct-28 00:00:00.0000, 1.111175842046868E+08, -4.907046141829625E+08, -1.992386843332726E+07,
2460252.500000000, A.D. 2023-Nov-04 00:00:00.0000, 1.199084566766980E+08, -4.873915558524714E+08, -1.843062613938352E+07,
2460259.500000000, A.D. 2023-Nov-11 00:00:00.0000, 1.286533382848199E+08, -4.838917975999761E+08, -1.693032170639467E+07,
2460266.500000000, A.D. 2023-Nov-18 00:00:00.0000, 1.373485038099073E+08, -4.802052624235852E+08, -1.542348045409599E+07,
2460273.500000000, A.D. 2023-Nov-25 00:00:00.0000, 1.459901872335107E+08, -4.763319353653233E+08, -1.391063804678866E+07,
2460280.500000000, A.D. 2023-Dec-02 00:00:00.0000, 1.545745817544556E+08, -4.722718657497433E+08, -1.239234062063450E+07,
2460287.500000000, A.D. 2023-Dec-09 00:00:00.0000, 1.630978399472010E+08, -4.680251696541837E+08, -1.086914492547259E+07,
2460294.500000000, A.D. 2023-Dec-16 00:00:00.0000, 1.715560743545018E+08, -4.635920325982189E+08, -9.341618505850464E+06,
2460301.500000000, A.D. 2023-Dec-23 00:00:00.0000, 1.799453588678038E+08, -4.589727117653264E+08, -7.810339896380812E+06,
2460308.500000000, A.D. 2023-Dec-30 00:00:00.0000, 1.882617295597672E+08, -4.541675367077045E+08, -6.275898622063965E+06,
2460315.500000000, A.D. 2024-Jan-06 00:00:00.0000, 1.965011832008761E+08, -4.491769108938583E+08, -4.738895033313781E+06,
2460322.500000000, A.D. 2024-Jan-13 00:00:00.0000, 2.046596766381165E+08, -4.440013159038244E+08, -3.199940413852751E+06,
2460329.500000000, A.D. 2024-Jan-20 00:00:00.0000, 2.127331282654341E+08, -4.386413151862291E+08, -1.659657221069902E+06,
2460336.500000000, A.D. 2024-Jan-27 00:00:00.0000, 2.207174195633412E+08, -4.330975567241757E+08, -1.186792187762558E+05,
2460343.500000000, A.D. 2024-Feb-03 00:00:00.0000, 2.286083962852890E+08, -4.273707755572382E+08, 1.422348460171551E+06,
2460350.500000000, A.D. 2024-Feb-10 00:00:00.0000, 2.364018695743059E+08, -4.214617964488891E+08, 2.962769272989750E+06,
2460357.500000000, A.D. 2024-Feb-17 00:00:00.0000, 2.440936171548339E+08, -4.153715366893640E+08, 4.501915236696064E+06,
2460364.500000000, A.D. 2024-Feb-24 00:00:00.0000, 2.516793846418246E+08, -4.091010090166841E+08, 6.039106907389581E+06,
2460371.500000000, A.D. 2024-Mar-02 00:00:00.0000, 2.591548870024015E+08, -4.026513246851690E+08, 7.573653364818960E+06,
2460378.500000000, A.D. 2024-Mar-09 00:00:00.0000, 2.665158103148961E+08, -3.960236967402897E+08, 9.104852185500145E+06,
2460385.500000000, A.D. 2024-Mar-16 00:00:00.0000, 2.737578142267905E+08, -3.892194432980645E+08, 1.063198938546610E+07,
2460392.500000000, A.D. 2024-Mar-23 00:00:00.0000, 2.808765350142996E+08, -3.822399897150769E+08, 1.215433943407960E+07,
2460399.500000000, A.D. 2024-Mar-30 00:00:00.0000, 2.878675870085326E+08, -3.750868696700867E+08, 1.367116554351358E+07,
2460406.500000000, A.D. 2024-Apr-06 00:00:00.0000, 2.947265626506354E+08, -3.677617285172651E+08, 1.518171993625572E+07,
2460413.500000000, A.D. 2024-Apr-13 00:00:00.0000, 3.014490347350482E+08, -3.602663280667728E+08, 1.668524383442047E+07,
2460420.500000000, A.D. 2024-Apr-20 00:00:00.0000, 3.080305598976403E+08, -3.526025501098295E+08, 1.818096747849621E+07,
2460427.500000000, A.D. 2024-Apr-27 00:00:00.0000, 3.144666818396692E+08, -3.447723992438972E+08, 1.966811027059975E+07,
2460434.500000000, A.D. 2024-May-04 00:00:00.0000, 3.207529343822699E+08, -3.367780056944348E+08, 2.114588097853376E+07,
2460441.500000000, A.D. 2024-May-11 00:00:00.0000, 3.268848445959752E+08, -3.286216282266177E+08, 2.261347797230063E+07,
2460448.500000000, A.D. 2024-May-18 00:00:00.0000, 3.328579360930743E+08, -3.203056571157063E+08, 2.407008948914479E+07,
2460455.500000000, A.D. 2024-May-25 00:00:00.0000, 3.386677325129786E+08, -3.118326171723816E+08, 2.551489392607149E+07,
2460462.500000000, A.D. 2024-Jun-01 00:00:00.0000, 3.443097612654285E+08, -3.032051708684567E+08, 2.694706015137716E+07,
2460469.500000000, A.D. 2024-Jun-08 00:00:00.0000, 3.497795577828252E+08, -2.944261215725826E+08, 2.836574781239478E+07,
2460476.500000000, A.D. 2024-Jun-15 00:00:00.0000, 3.550726706867994E+08, -2.854984163370297E+08, 2.977010764924000E+07,
2460483.500000000, A.D. 2024-Jun-22 00:00:00.0000, 3.601846668695862E+08, -2.764251470472779E+08, 3.115928200500026E+07,
2460490.500000000, A.D. 2024-Jun-29 00:00:00.0000, 3.651111343724807E+08, -2.672095517419580E+08, 3.253240558021857E+07,
2460497.500000000, A.D. 2024-Jul-06 00:00:00.0000, 3.698476857081569E+08, -2.578550185584836E+08, 3.388860598863120E+07,
2460504.500000000, A.D. 2024-Jul-13 00:00:00.0000, 3.743899635781708E+08, -2.483650894629799E+08, 3.522700416761384E+07,
2460511.500000000, A.D. 2024-Jul-20 00:00:00.0000, 3.787336470023500E+08, -2.387434625988951E+08, 3.654671492098767E+07,
2460518.500000000, A.D. 2024-Jul-27 00:00:00.0000, 3.828744572052373E+08, -2.289939941966361E+08, 3.784684757748409E+07,
2460525.500000000, A.D. 2024-Aug-03 00:00:00.0000, 3.868081635322602E+08, -2.191207004012007E+08, 3.912650671050362E+07,
2460532.500000000, A.D. 2024-Aug-10 00:00:00.0000, 3.905305895598240E+08, -2.091277590034568E+08, 4.038479290469868E+07,
2460539.500000000, A.D. 2024-Aug-17 00:00:00.0000, 3.940376194436563E+08, -1.990195110338399E+08, 4.162080356770118E+07,
2460546.500000000, A.D. 2024-Aug-24 00:00:00.0000, 3.973252045284995E+08, -1.888004622205814E+08, 4.283363378320768E+07,
2460553.500000000, A.D. 2024-Aug-31 00:00:00.0000, 4.003893703278642E+08, -1.784752843529066E+08, 4.402237718992279E+07,
2460560.500000000, A.D. 2024-Sep-07 00:00:00.0000, 4.032262242305609E+08, -1.680488164001870E+08, 4.518612686282859E+07,
2460567.500000000, A.D. 2024-Sep-14 00:00:00.0000, 4.058319640104607E+08, -1.575260643673930E+08, 4.632397627014682E+07,
2460574.500000000, A.D. 2024-Sep-21 00:00:00.0000, 4.082028851025528E+08, -1.469121994519527E+08, 4.743502052615938E+07,
2460581.500000000, A.D. 2024-Sep-28 00:00:00.0000, 4.103353861467998E+08, -1.362125577089845E+08, 4.851835772079204E+07,
2460588.500000000, A.D. 2024-Oct-05 00:00:00.0000, 4.122259764544603E+08, -1.254326412011506E+08, 4.957308998857529E+07,
2460595.500000000, A.D. 2024-Oct-12 00:00:00.0000, 4.138712850205237E+08, -1.145781176303536E+08, 5.059832459277473E+07,
2460602.500000000, A.D. 2024-Oct-19 00:00:00.0000, 4.152680693147796E+08, -1.036548187008460E+08, 5.159317516252661E+07,
2460609.500000000, A.D. 2024-Oct-26 00:00:00.0000, 4.164132238002471E+08, -9.266873799493146E+07, 5.255676301953187E+07,
2460616.500000000, A.D. 2024-Nov-02 00:00:00.0000, 4.173037884149283E+08, -8.162602849009325E+07, 5.348821855725832E+07,
2460623.500000000, A.D. 2024-Nov-09 00:00:00.0000, 4.179369570898024E+08, -7.053299967823751E+07, 5.438668266377904E+07,
2460630.500000000, A.D. 2024-Nov-16 00:00:00.0000, 4.183100863028658E+08, -5.939611426956586E+07, 5.525130818373244E+07,
2460637.500000000, A.D. 2024-Nov-23 00:00:00.0000, 4.184207036871599E+08, -4.822198451551231E+07, 5.608126140817207E+07,
2460644.500000000, A.D. 2024-Nov-30 00:00:00.0000, 4.182665168683594E+08, -3.701736817953126E+07, 5.687572356576852E+07,
2460651.500000000, A.D. 2024-Dec-07 00:00:00.0000, 4.178454229146448E+08, -2.578916372139933E+07, 5.763389230608787E+07,
2460658.500000000, A.D. 2024-Dec-14 00:00:00.0000, 4.171555176730291E+08, -1.454440345624251E+07, 5.835498333305602E+07,
2460665.500000000, A.D. 2024-Dec-21 00:00:00.0000, 4.161951026400968E+08, -3.290245917002235E+06, 5.903823229630949E+07,
2460672.500000000, A.D. 2024-Dec-28 00:00:00.0000, 4.149626913050917E+08, 7.966029618270310E+06, 5.968289651324140E+07,
2460679.500000000, A.D. 2025-Jan-04 00:00:00.0000, 4.134570175234975E+08, 1.921702881355036E+07, 6.028825647274323E+07,
2460686.500000000, A.D. 2025-Jan-11 00:00:00.0000, 4.116770440598607E+08, 3.045524983687045E+07, 6.085361741827077E+07,
2460693.500000000, A.D. 2025-Jan-18 00:00:00.0000, 4.096219703422269E+08, 4.167309187516716E+07, 6.137831101383657E+07,
2460700.500000000, A.D. 2025-Jan-25 00:00:00.0000, 4.072912396292914E+08, 5.286286412066278E+07, 6.186169702563848E+07,
2460707.500000000, A.D. 2025-Feb-01 00:00:00.0000, 4.046845457362177E+08, 6.401679518883305E+07, 6.230316499272525E+07,
2460714.500000000, A.D. 2025-Feb-08 00:00:00.0000, 4.018018393336604E+08, 7.512704297456250E+07, 6.270213587584700E+07,
$$EOE